W-SERIES 4              
1 64543U 25135R   26068.82962634  .00052628  21484-5  63083-3 0  9990
2 64543  97.4458 182.1022 0402581  65.9998 298.2822 15.01503849 39543
STARLINK-35859          
1 67185U 25303Y   26068.06565655  .00037802  00000+0  13759-2 0  9996
2 67185  43.0016 313.8994 0001659 262.5678  97.4985 15.27586117 12645
